0 LES 5
1 02866U 67066E   13282.88341910 -.00000084  00000-0  10000-3 0  9073
2 02866 007.2442 310.3466 0052381 262.7169 096.5793 01.09419205 80332
0 LES 5
1 02866U 67066E   13285.62503881 -.00000148  00000-0  10000-3 0  9087
2 02866 007.2404 310.3195 0052430 262.9451 096.3535 01.09420197 80367
0 LES 5
1 02866U 67066E   13288.36657929 -.00000088  00000-0  10000-3 0  9098
2 02866 007.2367 310.2920 0052385 263.0549 096.2185 01.09418991 80391
0 LES 5
1 02866U 67066E   13288.77375297 -.00000087  00000-0  10000-3 0  9109
2 02866 007.2353 310.2973 0052850 263.8797 255.7635 01.09418287 80394
0 LES 5
1 02866U 67066E   13289.28048972 -.00000094  00000-0  10000-3 0  9112
2 02866 007.2352 310.2841 0052358 263.0540 096.2284 01.09419102 80405
0 LES 5
1 02866U 67066E   13292.02201804 -.00000138  00000-0  10000-3 0  9134
2 02866 007.2315 310.2568 0052572 263.5708 095.6790 01.09419958 80436
0 LES 5
1 02866U 67066E   13292.02202208 -.00000138  00000-0  10000-3 0  9122
2 02866 007.2316 310.2569 0052440 263.1698 096.0868 01.09419986 80438
0 LES 5
1 02866U 67066E   13294.76367721 -.00000084  00000-0  10000-3 0  9149
2 02866 007.2277 310.2290 0052597 263.6615 095.6084 01.09419136 80467
0 LES 5
1 02866U 67066E   13295.67757703 -.00000110  00000-0  10000-3 0  9154
2 02866 007.2264 310.2207 0052670 263.8770 095.4006 01.09419640 80470
